Location Type,Name,Address,City,State,Zip,Phone,Latitude,Longitude
AMBEST Travel Center,360 Truck Stop,US Hwy 360,Amelia Court House,VA,23002,(804) 561-4719,37.357869,-77.87461
AMBEST Travel Center,76th Street Truck Plaza,US Hwy 131,Byron Center,MI,49315,(616) 455-3600,42.82578,-85.67471
AMBEST Fuel Stop,7-Eleven - Allentown Plaza #7087,I-476 / PA TNPK [N & S] MM 55,Wescosville,PA,18106,(610) 398-7086,40.574249,-75.5584
AMBEST Fuel Stop,7-Eleven - Andrews,US 385 at CR 1910,Andrews,TX,79714,(432) 524-9189,32.306719,-102.54315
AMBEST Fuel Stop,7-Eleven - Ballinger,US Hwy 67 at Baker Street,Ballinger,TX,76821,(325) 365-2876,31.727419,-99.9572
AMBEST Fuel Stop,7-Eleven - Bay City #40974,TX 35 at Bayou Drive / 5620 7th Street (Hwy 35),Bay City,TX,77414,(979) 244-4737,28.99068,-95.92569
AMBEST Fuel Stop,7-Eleven - Bedford #40275,I-76 WB MM150,Bedford,PA,15522,(814) 623-6203,40.02964,-78.492429
AMBEST Fuel Stop,7-Eleven - Beeville #40800,1620 FM 351 E,Beeville,TX,78102,(361) 354-5459,28.42929,-97.742239
AMBEST Fuel Stop,7-Eleven - Big Lake 50,US 67 at TX 137 / 50 W 2nd St,Big Lake,TX,76932,(325) 884-3092,31.191199,-101.46647
AMBEST Fuel Stop,7-Eleven - Big Lake 91,US HWY 67,Big Lake,TX,76932,(325) 884-2641,31.19226,-101.46675
AMBEST Fuel Stop,7-Eleven - Blanco #40574,1138 US Hwy 281 S,Blanco,TX,78606,(830) 833-5874,30.08406,-98.41772
AMBEST Fuel Stop,7-Eleven - Blue Heron Plaza #7753,6164 CR 165,Genoa,OH,43430,(419) 855-7230,41.49132,-83.368899
AMBEST Fuel Stop,7-Eleven - Blue Mountain Plaza #7081,I-76 24 Miles West of Exit 226,Newburg,PA,17240,(717) 423-5482,40.16568,-77.59783
AMBEST Fuel Stop,7-Eleven - Bowmansville Plaza #7092,I-76E MM 290,Bowmansville,PA,17507,(717) 445-9791,40.20221,-76.01518
AMBEST Fuel Stop,7-Eleven - Brady,US Hwy 87 / US Hwy 190,Brady,TX,76825,(325) 597-0200,31.11485,-99.33499
AMBEST Fuel Stop,7-Eleven - Brady's Leap Plaza #7762,9250 Limeridge Rd,Mantua,OH,44255,(330) 298-1596,41.2426,-81.17673
AMBEST Fuel Stop,7-Eleven - Bronte,US-277 / SH-158,Bronte,TX,76933,(325) 473-6601,31.886649,-100.291569
AMBEST Fuel Stop,7-Eleven - Brownsville #40729,2305 FM 511,Brownsville,TX,78520,(956) 831-3178,25.93954,-97.408029
AMBEST Fuel Stop,7-Eleven - Brownwood,US 377 / CR 2376,Brownwood,TX,76801,(325) 646-7209,31.6872,-99.000399
AMBEST Fuel Stop,7-Eleven - Burnet #40547,US 281 / 2501 S Water,Burnet,TX,78611,(512) 756-2521,30.73852,-98.23456
AMBEST Fuel Stop,7-Eleven - Carrizo Spring #40532,US 83 at US 277 / 101 S 1st St,Carrizo Springs,TX,78834,(830) 876-3359,28.520579,-99.856899
AMBEST Fuel Stop,7-Eleven - Cisco,I-20 Exit 330,Cisco,TX,76437,(432) 684-4533,32.37599,-99.00296
AMBEST Express,7-Eleven - Colorado City,I-20 Exit 217,Colorado City,TX,79512,(325) 728-9494,32.409829,-100.84325
AMBEST Fuel Stop,7-Eleven - Comanche,US-67,Comanche,TX,76442,(325) 356-2422,31.897849,-98.61381
AMBEST Fuel Stop,7-Eleven - Combes #40705,I-69E at TX 107 - 21469 Hwy 77 Exp,Combes,TX,78552,(956) 412-1304,26.24784,-97.725679
AMBEST Fuel Stop,7-Eleven - Commodore Perry Plaza #7756,888 N County Rd,Clyde,OH,43410,(419) 547-8585,41.367809,-82.957599
AMBEST Fuel Stop,7-Eleven - Corpus Christi #5216,TX 358 / 601 S Padre Island Dr,Corpus Christi,TX,78405,(361) 814-8206,27.755009,-97.46056
AMBEST Express,7-Eleven - Cotulla #40535,I-35 Exit 68 at Bus. 35,Cotulla,TX,78014,(830) 879-5354,28.451339,-99.238889
AMBEST Fuel Stop,7-Eleven - Cuero #40885,US Hwy 183 / 4200 N Esplanade,Cuero,TX,77954,(361) 275-8200,29.13101,-97.27701
AMBEST Fuel Stop,7-Eleven - Cumberland Valley Plaza #7082,13 Burgners Mill Rd,Plainfield,PA,17015,(717) 258-4397,40.20535,-77.28695
AMBEST Fuel Stop,7-Eleven - Dayton #41014,US 90 at TX 146 / 811 Hwy 90,Dayton,TX,77535,(936) 258-6967,30.04072,-94.894369
AMBEST Fuel Stop,7-Eleven - Del Rio #40530,TX 239 at Las Vacas St / 2200 Spur 239,Del Rio,TX,78840,(830) 774-1881,29.34673,-100.91647
AMBEST Fuel Stop,7-Eleven - Denver City,SH-83 / SH-214,Denver City,TX,79323,(806) 592-7113,32.9626,-102.81832
AMBEST Fuel Stop,7-Eleven - Eagle Pass #40537,TX 480 at CR 1021 / 4377 FM 201,Eagle Pass,TX,78852,(830) 773-3939,28.67059,-100.45437
AMBEST Fuel Stop,7-Eleven - El Campo #40977,US 59 FM 1162 at TX 71 / 1710 S Mechanic St,El Campo,TX,77437,(979) 543-7701,29.178979,-96.26187
AMBEST Fuel Stop,7-Eleven - Erie Islands Plaza #7755,1012 N County Rd,Clyde,OH,43410,(419) 547-6355,41.369199,-82.957689
AMBEST Fuel Stop,7-Eleven - Ernie Pyle Plaza #2773,Indiana Toll Road (I-80/I-90) MM 126 WB,Howe,IN,46746,(260) 562-2870,41.7462,-85.32738
AMBEST Fuel Stop,7-Eleven - Falfurrias #40813,500 E Rice St,Falfurrias,TX,78355,(361) 325-1337,27.225729,-98.1401
AMBEST Fuel Stop,7-Eleven - Falfurrias #40815,US Hwy 281 at TX 285 / 112 N Hwy 281,Falfurrias,TX,78335,(361) 325-2560,27.22645,-98.13996
AMBEST Express,7-Eleven - Fort Stockton,I-10 Exit 257 (North Hwy 285),Fort Stockton,TX,79735,(432) 336-8861,30.9023,-102.912499
AMBEST Fuel Stop,7-Eleven - Freer #40911,100 W Riley,Freer,TX,78357,(361) 394-6610,27.88294,-98.61824
AMBEST Fuel Stop,7-Eleven - Gene S Porter Plaza #2772,Indiana Toll Road (I-80/I-90) MM 126 EB,Howe,IN,46746,(260) 562-2676,41.74573,-85.33024
AMBEST Fuel Stop,7-Eleven - George Ade #2778,I-80/I-90 Exit 23,Portage,IN,46368,(219) 762-4882,41.58767,-87.218699
AMBEST Fuel Stop,7-Eleven - George Craig Plaza #2774,Indiana Toll Road (I-80/I-90) MM 90 EB,Elkhart,IN,46514,(574) 266-4080,41.731699,-86.00636
AMBEST Fuel Stop,7-Eleven - George West#40809,I-37 Exit 56,George West,TX,78022,(361) 449-2214,28.33802,-98.029179
AMBEST Fuel Stop,7-Eleven - George West#40811,I-37 Exit 56 at US Hwy 59,George West,TX,78022,(361) 449-3766,28.33942,-98.025689
AMBEST Fuel Stop,7-Eleven - Glacier Hill Plaza #7764,I-76E Exit 235,New Springfield,OH,44443,(330) 542-9615,40.93858,-80.58587
AMBEST Fuel Stop,7-Eleven - Great Lakes Plaza #7759,2000 Edgerton Rd,Broadview Heights,OH,44147,(440) 717-9530,41.292619,-81.6723
AMBEST Fuel Stop,7-Eleven - Haskell,US-380 / US-277,Haskelle,TX,79521,(940) 864-3434,33.157089,-99.726749
AMBEST Fuel Stop,7-Eleven - Hebbronville #40892,611 N Smith Avenue,Hebbronville,TX,78361,(361) 527-5584,27.311879,-98.67879
AMBEST Fuel Stop,7-Eleven - Henry Schricker Plaza #2775,Indiana Toll Road (I-80/I-90) MM 90 WB,Elkhart,IN,46514,(574) 266-4503,41.73255,-86.003929
AMBEST Fuel Stop,7-Eleven - Hereford,US 60 at Progressive/2901 East 1st St,Hereford,TX,79045,(806) 363-1030,34.829639,-102.36997
AMBEST Fuel Stop,7-Eleven - Hickory Run Plaza #7088,I-476 at MM 86,Jim Thorpe,PA,18229,(570) 325-2673,40.97063,-75.631349
AMBEST Fuel Stop,7-Eleven - Highspire Plaza #7090,I-76E Exit 250,Middletown,PA,17057,(717) 944-9266,40.20976,-76.742549
AMBEST Fuel Stop,7-Eleven - Hobbs,US Hwy 62,Hobbs,NM,88240,(575) 393-4467,32.696199,-103.17908
AMBEST Fuel Stop,7-Eleven - Houston #40961,I-45 Exit 63,Houston,TX,77090,(281) 209-0918,29.9812,-95.4213
AMBEST Fuel Stop,7-Eleven - Houston #40980,I-10 Exit 778A,Houston,TX,77015,(713) 451-5212,29.763839,-95.21423
AMBEST Fuel Stop,7-Eleven - Houston #40983,US 90 at Sheldon Rd / 9735 Sheldon Rd,Houston,TX,77049,(281) 456-0147,29.856359,-95.12829
AMBEST Fuel Stop,7-Eleven - Indian Meadow Plaza #7749,I-80/90 OH TNPK WB MM 21,West Unity,OH,43570,(419) 924-2383,41.60511,-84.40889
AMBEST Fuel Stop,7-Eleven - Jamesburg #7704,I-95/NJ TPK Exit 8A,Jamesburg,NJ,8831,(732) 521-5387,40.371609,-74.458929
AMBEST Fuel Stop,7-Eleven - JT McCutcheon #2779,I-80/I-90 Exit 22,Portage,IN,46368,(219) 762-3641,41.58796,-87.215289
AMBEST Fuel Stop,7-Eleven - Karnes City #40801,1905 S US Hwy 181,Karnes City,TX,78118,(830) 780-2854,28.86495,-97.894729
AMBEST Fuel Stop,7-Eleven - King of Prussia Plaza #7084,I-276  at MM 328 WB  (PATP),King of Purssia,PA,19406,(610) 265-2144,40.089939,-75.37106
AMBEST Fuel Stop,7-Eleven - Knute Rockne #2777,Indiana Toll Road (I-80/I-90) MM 56 EB,Rolling Prairie,IN,46371,(219) 778-8085,41.705199,-86.62304
AMBEST Fuel Stop,7-Eleven - Lamesa,US Hwy 87 / US Hwy 180,Lamesa,TX,79331,(214) 840-5513,32.73659,-101.94942
AMBEST Fuel Stop,7-Eleven - Lampasas #40544,US 183 / 801 N Key Ave,Lampasas,TX,76550,(512) 564-1459,31.07471,-98.18514
AMBEST Fuel Stop,7-Eleven - Laredo #40915,14118 FM 1472,Laredo,TX,78045,(956) 718-2088,27.63004,-99.529489
AMBEST Fuel Stop,7-Eleven - Lawn Plaza #7091,Bachmanville Rd @ PA Turnpike,Hershey,PA,17033,(717) 367-9336,40.2081,-76.57508
AMBEST Fuel Stop,7-Eleven - Liberty #41015,US 90 at TX 146 / 2130 Hwy 146 Bypass,Liberty,TX,77575,(936) 336-4004,30.07853,-94.77303
AMBEST Express,7-Eleven - Littlefield,US Hwy 84 / US Hwy 385,Littlefield,TX,79339,(806) 385-7522,33.902729,-102.32673
AMBEST Fuel Stop,7-Eleven - Llano,SH-71 / SH-16,Llano,TX,78643,(325) 247-1010,30.736999,-98.674319
AMBEST Fuel Stop,7-Eleven - Los Indios #40780,US 281 at CR 509 - 702 E US Hwy 281,Los Indios,TX,78567,(956) 399-7483,26.050439,-97.73572
AMBEST Fuel Stop,7-Eleven - Mahoning Valley Plaza #7763,I-76W Exit 235,New Springfield,OH,44443,(330) 542-9650,40.94044,-80.587509
AMBEST Fuel Stop,7-Eleven - Maxwell #40587,TX 21 at CR 150 / 7809 Camino Real - FM 150,Maxwell,TX,78640,(512) 357-4048,29.93484,-97.819419
AMBEST Fuel Stop,7-Eleven - Mcallen #40673,CR 216 - 4712 Military Hwy,McAllen,TX,78503,(956) 928-0433,26.15518,-98.28154
AMBEST Fuel Stop,7-Eleven - Middle Ridge Plaza #7757,Rt. 58 46402 Middle Ridge Rd,Amherst,OH,44001,(440) 984-3995,41.379359,-82.223979
AMBEST Fuel Stop,7-Eleven - Midland 11200,SH-349 / SH-191,Midland,TX,79764,(432) 381-7780,31.85629,-102.50162
AMBEST Fuel Stop,7-Eleven - Midland 2109,I-20 Exit 134,Midland,TX,79701,(432) 684-4533,31.967099,-102.10767
AMBEST Fuel Stop,7-Eleven - Midland 3200,I-20 Exit 138,Midland,TX,79702,(432) 684-7338,31.981339,-102.03556
AMBEST Fuel Stop,7-Eleven - Midland 3201,I-20 Exit 138,Midland,TX,79702,(432) 683-8132,31.9827,-102.0367
AMBEST Fuel Stop,7-Eleven - Mission #40628,I-2 - 2107 Hwy 83,Mission,TX,78574,(956) 519-1593,26.21555,-98.34963
AMBEST Fuel Stop,7-Eleven - Monahans,I-20 Exit 80,Monahans,TX,79756,(432) 943-6621,31.57289,-102.89288
AMBEST Fuel Stop,7-Eleven - Muncy #7263,I-180  Exit 15  at US 220,Muncy,PA,17756,(570) 940-0140,41.2376,-76.81252
AMBEST Fuel Stop,7-Eleven - New Stanton Plaza #7089,734 New Stanton Plaza Rd,Hunker,PA,15639,(724) 925-1908,40.20644,-79.566839
AMBEST Fuel Stop,7-Eleven - Newark #40122,I-95 MM2,Newark,DE,19702,(302) 266-0230,39.6629,-75.690259
AMBEST Fuel Stop,7-Eleven - Nixon #40802,US Hwy 87 at TX80 / 210 E Central Ave,Nixon,TX,78140,(830) 582-1154,29.2681,-97.7629
AMBEST Fuel Stop,7-Eleven - North Somerset Plaza #7077,169 North Plaza Access Rd,Somerset,PA,15501,(814) 444-1746,40.000369,-79.04513
AMBEST Fuel Stop,7-Eleven - Oakmont Plaza #7095,I-76  at MM 49 EB (PATP),Verona,PA,15147,(412) 828-3702,40.52089,-79.81346
AMBEST Fuel Stop,7-Eleven - Odem #40812,800 Voss Ave,Odem,TX,78370,(361) 368-2387,27.94715,-97.584639
AMBEST Fuel Stop,7-Eleven - Odessa 10510,W 42nd Street,Odessa,TX,79764,(432) 381-7780,31.85648,-102.50212
AMBEST Fuel Stop,7-Eleven - Odessa 1350,I-20 Exit 115,Odessa,TX,79763,(432) 332-3392,31.82002,-102.38318
AMBEST Fuel Stop,7-Eleven - Odessa 4020,SH-338 / SH-450,Odessa,TX,79764,(432) 366-1413,31.87498,-102.41808
AMBEST Fuel Stop,7-Eleven - Olmito #40736,I-69E at TX 550 - 7900 Hwy 77,Olmito,TX,78575,(956) 350-3902,26.02746,-97.53144
AMBEST Fuel Stop,7-Eleven - Orange Grove #40819,104 S Reynolds,Orange Grove,TX,78372,(361) 384-2722,27.95651,-97.937299
AMBEST Fuel Stop,7-Eleven - Palatka #2572,2600 Reid St,Palatka,FL,32177,(386) 328-0043,29.65509,-81.65652
AMBEST Fuel Stop,7-Eleven - Palm Bay #2573,1180 Malabar Rd,Palm Bay,FL,32907,(321) 951-3333,27.998149,-80.63231
AMBEST Fuel Stop,7-Eleven - Palmview #40598,US 83 - 2005 Palma Vista Dr,Palmview,TX,78572,(956) 585-1804,26.2358,-98.3926
AMBEST Fuel Stop,7-Eleven - Palmview #40604,US 83 - 806 E Palma Vista Dr,Palmview,TX,78572,(956) 580-2469,26.234999,-98.37921
AMBEST Express,7-Eleven - Pecos 2203,I-20 Exit 42,Pecos,TX,79772,(432) 445-1581,31.40443,-103.48518
AMBEST Fuel Stop,7-Eleven - Pecos 2612,I-20 Exit 39,Pecos,TX,79772,(432) 684-4533,31.39772,-103.52133
AMBEST Fuel Stop,7-Eleven - Peter J Camiel Plaza #7093,I-76W MM 305,Elverson,PA,19520,(610) 286-8836,40.1223,-75.776799
AMBEST Fuel Stop,7-Eleven - Pharr #40624,US 83 - 809 N Cage,Pharr,TX,78577,(956) 787-8631,26.20412,-98.18303
AMBEST Fuel Stop,7-Eleven - Pharr #40665,US 281 - 10701 S Cage Blvd,Pharr,TX,78577,(956) 702-9919,26.0929,-98.200029
AMBEST Fuel Stop,7-Eleven - Pharr #40675,CR 2061 at CR 3072 - 7401 S Jackson Rd,Pharr,TX,78577,(956) 843-2335,26.125229,-98.2159
AMBEST Fuel Stop,7-Eleven - Portage Plaza #7761,9270 Limeridge Rd,Mantua,OH,44255,(330) 298-1582,41.24447,-81.176929
AMBEST Fuel Stop,7-Eleven - Ralls,US Hwy 82,Ralls,TX,79357,(806) 253-0118,33.673909,-101.38232
AMBEST Fuel Stop,7-Eleven - Refugio #40810,108 North Alamo St,Refugio,TX,78377,(361) 526-2251,28.305779,-97.274619
AMBEST Fuel Stop,7-Eleven - Rio Grande #40596,US 83 at CR 3167 - 2798 W Hwy 83,Rio Grande City,TX,78582,(956) 487-1429,26.370909,-98.860309
AMBEST Fuel Stop,7-Eleven - Rio Grande #40601,US 83 at CR 2360 - 7276 E Hwy 83,Alto Bonito,TX,78582,(956) 716-6160,26.30592,-98.640469
AMBEST Fuel Stop,7-Eleven - Riviera #40814,6240 South Hwy 77,Riviera,TX,78379,(361) 296-3818,27.303699,-97.81555
AMBEST Fuel Stop,7-Eleven - San Angelo 1606,US 277 at Bell / 1606 LaFollette,San Angelo,TX,76905,(325) 655-0397,31.477,-100.41345
AMBEST Fuel Stop,7-Eleven - San Angelo 3925,US Hwy 87 at Ben Ficklin,San Angelo,TX,76903,(325) 655-1613,31.41993,-100.441239
AMBEST Fuel Stop,7-Eleven - San Antonio #40522,I-10 Exit 550,San Antonio,TX,78257,(210) 698-3634,29.677389,-98.635459
AMBEST Fuel Stop,7-Eleven - San Benito #40735,I-69E at TX486 - 2500 W Exp 83 (Williams & Hwy 77),San Benito,TX,78586,(956) 361-1400,26.141459,-97.65513
AMBEST Fuel Stop,7-Eleven - Santo,I-20 Exit 386 / US Hwy 281,Santo,TX,76472,(940) 769-2434,32.60739,-98.1114
AMBEST Fuel Stop,7-Eleven - Sideling Hill Plaza #7080,3744 North Hess Rd,Waterfall,PA,16689,(717) 485-3226,40.059089,-78.081249
AMBEST Fuel Stop,7-Eleven - South Midway Plaza #7078,I-76E Exit 150,Bedford,PA,15522,(814) 623-1740,40.03126,-78.493009
AMBEST Fuel Stop,7-Eleven - South Somerset Plaza #7076,328 Industrial Park Rd,Somerset,PA,15501,(814) 445-4925,39.998779,-79.045969
AMBEST Fuel Stop,7-Eleven - Stanton,I-20 Exit 156 at TX 137/1308 N Lamesa Hwy,Stanton,TX,79782,(432) 756-2115,32.13747,-101.80464
AMBEST Fuel Stop,7-Eleven - Sterling City,US 87 at TX 163 / 1001 4th Ave,Sterling City,TX,76951,(325) 378-2042,31.83606,-100.99472
AMBEST Fuel Stop,7-Eleven - Tatum,US 380 at NM 206,Tatum,NM,88267,(469) 525-0010,33.256059,-103.3169
AMBEST Fuel Stop,7-Eleven - Texico,US Hwy 84 / US Hwy 60,Texico,NM,88135,(575) 482-9313,34.38806,-103.04588
AMBEST Fuel Stop,7-Eleven - Tiffin River Plaza #7750,I-80/90 OH TNPK EB MM 21,Tiffin River,OH,43570,(419) 924-9149,41.60358,-84.406639
AMBEST Fuel Stop,7-Eleven - Towpath Plaza #7760,10037 Broadview Rd,Broadview Heights,OH,44147,(440) 717-9658,41.29144,-81.674769
AMBEST Fuel Stop,7-Eleven - Uvalde #40519,US 190/2815 E Main St,Uvalde,TX,78801,(830) 278-3458,29.22983,-99.75524
AMBEST Fuel Stop,7-Eleven - Vermillion Valley Plaza #7758,Rt. 58 7998 S Leavitt Rd,Amherst,OH,44001,(440) 986-5225,41.377809,-82.22351
AMBEST Fuel Stop,7-Eleven - Victoria #40883,US 59 at TX185 / 3204 S Laurent St,Victoria,TX,77901,(361) 579-0087,28.767769,-96.977249
AMBEST Fuel Stop,7-Eleven - Waco #40558,TX 6 at CR 185 / 8256 N State Hwy 6,Waco,TX,76712,(254) 848-2726,31.58146,-97.30341
AMBEST Fuel Stop,7-Eleven - Wayne #40287,I-76 at MM 380,Wayne,PA,19087,(610) 687-9964,40.083179,-75.43939
AMBEST Fuel Stop,7-Eleven - Wilbur Shaw Plaza #2776,Indiana Toll Road (I-80/I-90) MM 56 WB,Rolling Prairie,IN,46371,(219) 778-8146,41.707769,-86.62138
AMBEST Fuel Stop,7-Eleven - Wyandot Plaza #7754,6410 CR 165,Geona,OH,43430,(419) 855-4175,41.489289,-83.36835
AMBEST Express,7-Eleven #35115,I-90 Exit 42 Rt 14 MM 340,Phelps,NY,14532,(315) 781-1464,42.95092,-76.97656
AMBEST Fuel Stop,A C & T Big Pool Exxon,I-70 Exit 12,Big Pool,MD,21711,(301) 842-3289,39.628019,-78.01833
AMBEST Fuel Stop,A C & T Falling Waters Exxon,I-81 Exit 23,Falling Waters,WV,25419,(304) 274-1312,39.57667,-77.8777
AMBEST Fuel Stop,A C & T Garland Groh,I-81 Exit 7B,Hagerstown,MD,21741,(301) 582-5494,39.66476,-77.743799
AMBEST Fuel Stop,A C & T Sharpsburg Pike Exxon,I-70 Exit 29,Hagerstown,MD,21740,(301) 797-0302,39.608849,-77.729749
AMBEST Travel Center,A C & T Travel Center,I-81 Exit 5B,Hagerstown,MD,21740,(301) 582-2702,39.63132,-77.784689
AMBEST Travel Center,A One Stop,103 SW I-45 SERVICE RD,ENNIS,TX,75119,(972) 875-3975,32.285989,-96.545559
AMBEST Travel Center,Abbott's Travel Center,I-35 Exit 359,Abbott,TX,76621,(254) 575-3127,31.89898,-97.0913
AMBEST Express,Abbyland Truck Stop,Hwy 29 at Exit 127,Curtiss,WI,54422,(715) 223-6666,44.94614,-90.43164
AMBEST Express,Ainsworth Four Corners,US 218-US 27 EXIT 66,AINSWORTH,IA,52201,(319) 657-3200,41.292,-91.535749
AMBEST Fuel Stop,Allsups #2132-Carrizozo,US Hwy 54,Carrizozo,NM,88301,(575) 648-2574,33.64678,-105.871399
AMBEST Fuel Stop,Allsups #2370-Clarendon,US Hwy 287,Clarendon,TX,79226,(806) 874-0187,34.941989,-100.8968
AMBEST Fuel Stop,Allsups #2377-Alamogordo,US Hwy 70,Alamogordo,NM,88310,(575) 437-2867,32.86791,-105.97968
AMBEST Travel Center,Allsup's #2387 - Guymon,Hwy 54 at US Hwy 54 & 64,Guymon,OK,73942,(865) 242-7616,36.688479,-101.46637
AMBEST Fuel Stop,Allsups #2390-Merkel,I-20 Exit 270,Merkel,TX,79536,(325) 928-5584,32.46802,-99.984319
AMBEST Fuel Stop,Allsups #2391-Merkel,I-20 Exit 269,Merkel,TX,79536,(325) 928-1505,32.47692,-100.01209
AMBEST Fuel Stop,Allsups #2392-Roswell,US Hwy 285,Roswell,NM,88201,(575) 623-9930,33.462389,-104.52369
AMBEST Fuel Stop,Allsups #2415-Meridian,Hwy 6,Meridian,TX,76665,(254) 435-2366,31.916899,-97.66477
AMBEST Fuel Stop,Almeda Swift Truck Stop,13740 Almeda Road,Houston,TX,77053,(832) 834-6590,29.606819,-95.42264
AMBEST Travel Center,Alta Convenience,I-70 Exit 19,Fruita,CO,81521,(760) 677-2475,39.154319,-108.73941
AMBEST Fuel Stop,Amigo's Country Corner,I-35 Exit 122,Devine,TX,78016,(830) 663-5170,29.12931,-98.89524
AMBEST Travel Center,Amigo's Flatonia,I-10 Exit 661,Flatonia,TX,78941,(281) 337-4067,29.69847,-97.09959
AMBEST Fuel Stop,Applegreen-Barrington,State Route 125,Barrington,NH,3825,(603) 905-9052,43.21358,-70.99487
AMBEST Travel Center,Arrowhead Travel Plaza,I-84 Exit 216,Pendleton,OR,97801,(541) 276-8080,45.643419,-118.6825
AMBEST Express,Ayerco 32,1700 Oak St,Canton,MO,63435,(573) 288-0378,40.123739,-91.538719
AMBEST Fuel Stop,Ayerco 35,18048 Hwy 161 S,Bowling Green,MO,63334,(573) 324-3006,39.33211,-91.178489
AMBEST Fuel Stop,Ayerco 44,7233 Hwy 36,Palmyra,MO,63461,(573) 248-0006,39.692019,-91.50915
AMBEST Travel Center,Bell's Silvercreek Junction,I-80 Exit 146,Park City,UT,84068,(435) 649-9243,40.73402,-111.4987
AMBEST Travel Center,Beltway 8 Travel Plaza,1104 N. SAM HOUSTON PKWY E.,Houston,TX,77032,(832) 230-5927,29.93813,-95.37245
AMBEST Travel Center,Bert's Travel Plaza,I-35 Exit 198,Wellsville,KS,66092,(785) 816-7006,38.707909,-95.074269
AMBEST Travel Center,Big Apple Travel Center,I-44/I-49 Exit 13,Joplin,MO,64804,(417) 768-3030,37.06707,-94.40551
AMBEST Travel Center,Big Charlie's Truck Plaza,I-64 Exit 282,Virginia Beach,VA,23455,(757) 460-2032,36.88308,-76.185879
AMBEST Travel Center,Black Mesa Travel Center,I-25 Exit 252,San Felipe Pueblo,NM,87001,(505) 867-4706,35.416589,-106.402379
AMBEST Express,Bodega #7,I-59N,Livingston,TX,77351,(936) 933-5976,30.5122,-94.51164
AMBEST Travel Center,Bordertown Travel Plaza,I-10 East exit 4,Vinton,LA,70668,(337) 313-5085,30.14729,-93.63472
AMBEST Express,Break Time #3147-Sikeston,I-55 Exit 67,Sikeston,MO,63801,(573) 471-2630,36.89316,-89.529399
AMBEST Travel Center,Break Time #3163 - Moberly,US Hwy 63,Moberly,MO,65270,(660) 372-1880,39.39448,-92.41101
AMBEST Travel Center,Break Time #3165 - Warrensburg,US Hwy 50,Warrensburg,MO,64930,(660) 429-0173,38.77926,-93.68384
AMBEST Travel Center,Break Time #3167 - Sedalia,US Hwy 65,Sedalia,MO,65301,(660) 851-0839,38.73736,-93.22551
AMBEST Express,Break Time #3170-Bolivar,Highway 13,Bolivar,MO,65613,(417) 326-0072,37.59819,-93.43544
AMBEST Travel Center,Break Time #3172-Jefferson City,US Hwy 50/US Hwy 63,Jefferson City,MO,65101,(573) 607-3366,38.542569,-92.07338
AMBEST Fuel Stop,Break Time #3173-Fulton,US Hwy 54,Fulton,MO,65251,(573) 607-3365,38.873829,-91.96339
AMBEST Fuel Stop,Busy Bee 25,I-10 Exit 283,Live Oak,FL,32340,(386) 487-2935,30.33259,-82.960149
AMBEST Travel Center,Casey's #3896,I-380 Exit 35 at Hwy 30,Center Point,IA,52213,(319) 849-2700,42.173139,-91.77692
AMBEST Fuel Stop,Casey's General Store #2272-Colfax,I-80 Exit 155,Colfax,IA,50054,(515) 674-4497,41.687049,-93.247889
AMBEST Fuel Stop,Casey's General Store #2490-Story City,I-35 Exit 124,Story City,IA,50248,(515) 733-4552,42.188279,-93.574309
AMBEST Fuel Stop,Casey's General Store #2550-Osceola,I-35 Exit 33,Osceola,IA,50213,(641) 342-4144,41.02704,-93.790019
AMBEST Travel Center,Casey's General Store #2654-Stuart,I-80 Exit 93,Stuart,IA,50250,(515) 523-2813,41.49707,-94.31909
AMBEST Fuel Stop,Casey's General Store #2769-Williamsburg,I-80 Exit 220,Williamsburg,IA,52361,(319) 668-9047,41.69037,-92.0091
AMBEST Travel Center,Casey's General Store #2792-Cedar Rapids,I-380 Exit 13,Cedar Rapids,IA,52404,(319) 841-8696,41.88875,-91.674139
AMBEST Fuel Stop,Casey's General Store #2845-Urbana,I-380 Exit 41,Urbana,IA,52345,(319) 443-2525,42.227339,-91.86972
AMBEST Travel Center,Casey's General Store #2867-Waterloo,US Hwy 20,Waterloo,IA,50701,(319) 234-2424,42.45411,-92.407139
AMBEST Travel Center,Casey's General Store #2956-Hesston,I-35 Exit 40,Hesston,KS,67062,(620) 327-2478,38.145339,-97.421149
AMBEST Fuel Stop,Casey's General Store #3204-Minden,I-80 Exit 29,Minden,IA,51553,(515) 381-5087,41.49607,-95.54684
AMBEST Fuel Stop,Casey's General Store #3263-Worthington,I-90 Exit 43,Worthington,MN,56187,(507) 376-5551,43.639429,-95.59416
AMBEST Travel Center,Casey's General Store #3292-Independence,US Hwy 20,Independence,IA,50644,(319) 334-7220,42.45121,-91.889099
AMBEST Fuel Stop,Casey's General Store #3294-Urbana,I-380 Exit 41,Urbana,IA,52345,(319) 443-2862,42.24671,-91.88942
AMBEST Fuel Stop,Casey's General Store #3364-Carrington,US Hwy 281 / US Hwy 52,Carrington,ND,58421,(701) 652-3104,47.458289,-99.118729
AMBEST Fuel Stop,Casey's General Store #3424-Ellendale,I-35 Exit 26,Ellendale,MN,56026,(507) 684-2003,43.869419,-93.28064
AMBEST Travel Center,Casey's General Store #3548-Pratt,US Hwy 400,Pratt,KS,67124,(620) 672-2605,37.6464,-98.715239
AMBEST Fuel Stop,Casey's General Store #3554-Mulberry Grove,I-70 Exit 52,Mulberry Grove,IL,62262,(618) 326-7003,38.918059,-89.26958
AMBEST Fuel Stop,Casey's General Store #3588-Tipp City,I-75 Exit 69,Tipp City,OH,45371,(937) 335-5116,39.98758,-84.200109
AMBEST Travel Center,Casey's General Store #3854-Manchester,US Hwy 20,Manchester,IA,52057,(563) 927-2014,42.46864,-91.48287
AMBEST Fuel Stop,Casey's General Store #3905-Shelbyville,I-74 Exit 113,Shelbyville,IN,46176,(317) 398-7814,39.548439,-85.77548
AMBEST Travel Center,Casey's General Store #3934-Ankeny,I-35 Exit 89,Ankeny,IA,50021,(515) 266-3226,41.678319,-93.57016
AMBEST Travel Center,Casey's General Store #3944-Tea,I-29 Exit 73,Tea,SD,57064,(605) 368-9892,43.45526,-96.83623
AMBEST Fuel Stop,Casey's General Store #3956-Bridgman,I-94 Exit 16,Bridgman,MI,49106,(269) 234-7315,41.932209,-86.569479
AMBEST Fuel Stop,Casey's General Store #4204-Knoxville,Hwy 168,Knoxville,TN,37914,(865) 328-0939,35.960509,-83.823279
AMBEST Express,Casey's General Store #4225-Nashville,Hwy 155 Exit 26,Nashville,TN,37209,(615) 588-2867,36.172049,-86.865319
AMBEST Travel Center,Casey's General Store #4390-Lamar,I-49 exit 77,Lamar,MO,64759,(417) 202-8359,37.49213,-94.29751
AMBEST Travel Center,Casey's General Store #6342-St Joseph,I-29 Exit 44,St Joseph,MO,64503,(816) 279-9299,39.724679,-94.79097
AMBEST Fuel Stop,Casey's General Store #6445-Lombard,I-355 Exit 27,Lombard,IL,60148,(630) 424-1375,41.903599,-88.042429
AMBEST Fuel Stop,Casey's General Stores #4453-Lexington,I-75 Exit 120,Lexington,KY,40511,(859) 465-3135,38.148629,-84.53416
AMBEST Express,Castaic Truck Stop,I-5 Exit 176,Castaic,CA,91384,(661) 295-1374,34.493169,-118.61932
AMBEST Fuel Stop,Certified Oil #410 - Ravenna,I-76 Exit# 43 Hwy 14,Ravenna,OH,44266,(330) 325-9484,41.10472,-81.153509
AMBEST Fuel Stop,Certified Oil #489 - Columbus,I-71 Exit 104 Hwy 104,Columbus,OH,43223,(614) 340-7031,39.91494,-83.020319
AMBEST Travel Center,Charlotte Travel Plaza,I-77 Exit 16B at Sunset Rd,Charlotte,NC,28216,(704) 879-6229,35.30821,-80.84994
AMBEST Fuel Stop,Chesapeake House A Sunoco,I-95 Exit 96,Northeast,MD,21901,(410) 287-5641,39.61135,-76.01018
AMBEST Travel Center,Chiricahua Apache Plaza,I-10 Exit 102,Deming,NM,88030,(575) 544-0073,32.241439,-107.41952
AMBEST Fuel Stop,Choctaw Nation Broken Bow 635,1800 S Park Dr,Broken Bow,OK,74728,(580) 584-5528,34.004519,-94.740279
AMBEST Express,Choctaw Nation Durant West 632,4305 Choctaw Rd,Calera,OK,74730,(580) 924-7210,33.95261,-96.418329
AMBEST Express,Choctaw Nation Grant 633,Rt. 1 Box 17,Grant,OK,74738,(580) 326-7595,33.93836,-95.525899
AMBEST Express,Choctaw Nation Poteau 638,4105 N Broadway,Poteau,OK,74953,(918) 647-3392,35.09763,-94.632739
AMBEST Express,Choctaw Nation Stringtown 641,897 N Hwy 69,Stringtown,OK,74569,(580) 346-7478,34.48944,-96.050089
AMBEST Express,Chrome Truck Stop,US Hwy 18/US Hwy 169,Algona,IA,50511,(515) 295-9191,43.0839,-94.235399
AMBEST Travel Center,Chubbys Travel Center,I-35S Exit 27,Natalia,TX,78059,(830) 227-0166,29.18591,-98.84493
AMBEST Travel Center,Cimarron Travel Plaza,I-35 Exit 203 at Hwy 15,Billings,OK,74630,(580) 725-3252,36.53513,-97.34005
AMBEST Fuel Stop,Circle K - Whitestown,I-65 Exit 130,Whitestown,IN,46075,(317) 769-7691,39.94966,-86.347729
AMBEST Express,Circle K #200 - Jefferson,I-85 Exit 140,Jefferson,GA,30549,(706) 367-8148,34.185879,-83.59058
AMBEST Fuel Stop,Circle K #2701524-Pilot Mountain,US Hwy 52,Pilot Mountain,NC,27041,(336) 368-1083,36.37574,-80.48842
AMBEST Fuel Stop,Circle K #2720931-Kenly,I-95 Exit 107,Kenly,NC,27542,(919) 284-3199,35.593559,-78.12993
AMBEST Fuel Stop,Circle K #2723046-Hope Mills,I-95 Exit 41,Hope Mills,NC,28348,(910) 423-4436,34.93518,-78.921229
AMBEST Travel Center,Circle K #2723123-Dunn,I-95 Exit 71,Dunn,NC,28334,(910) 892-3642,35.2704,-78.61561
AMBEST Fuel Stop,Circle K #2723471-Wilson,I-95 Exit 121,Wilson,NC,27893,(252) 237-7200,35.76323,-78.000399
AMBEST Fuel Stop,Circle K #2723707-Troutville,I-81 Exit 150A,Troutville,VA,24175,(540) 992-5062,37.3866,-79.903599
AMBEST Express,Circle K #2723708-Wytheville,I-81 Exit 77,Wytheville,VA,24382,(276) 228-6680,36.935899,-80.995099
AMBEST Fuel Stop,Circle K #4701677-Sullivan,I-44 Exit 226,Sullivan,MO,63080,(573) 468-5246,38.22354,-91.152559
AMBEST Fuel Stop,Circle K 1251 - Bloomington,I-55 Exit 160 & US150,Bloomington,IL,61705,(309) 827-6755,40.48686,-89.045659
AMBEST Travel Center,Circle K 1398 - Divernon,I-55 Exit 82,Divernon,IL,62530,(217) 628-1127,39.59022,-89.65255
AMBEST Fuel Stop,Circle K 1408 - Rochelle,I-39 at Rt 38,Rochelle,IL,61068,(815) 561-1603,41.935929,-89.03515
AMBEST Travel Center,Circle K 1424 - Morton,I-74 EXIT 150,Morton,IL,61550,(309) 263-4057,40.62633,-89.46499
AMBEST Fuel Stop,Circle K 2408 - Lafayette,I-65 Exit 168,Lafayette,IN,47905,(765) 446-9259,40.37382,-86.780259
AMBEST Fuel Stop,Circle K 2411 - Danville,260 S Road 200 E,Danville,IN,46122,(317) 745-3127,39.75782,-86.48744
AMBEST Fuel Stop,Circle K 3626 - Sweetwater,I-75/HWY 68 Exit 60,Sweetwater,TN,37874,(423) 337-9577,35.601199,-84.52664
AMBEST Fuel Stop,Circle K 3701 - Smyrna,I-24 Exit 70,Smyrna,TN,37167,(615) 223-1236,35.93184,-86.534499
AMBEST Fuel Stop,Circle K 5357 - S. Bloomfield,US Hwy 23S MM17 / 5065 S Walnut St,S. Bloomfield,OH,43103,(740) 983-0460,39.715089,-82.987909
AMBEST Express,Circle K 5726 - Carroll,Hwy33/4400 Coonpath Road,Carroll,OH,43112,(740) 756-7293,39.77259,-82.68434
AMBEST Fuel Stop,Circle K 65 - Taylorsville,I-65 EXIT 76A,Taylorsville,IN,47280,(812) 526-9119,39.29608,-85.957719
AMBEST Fuel Stop,Circle K 6703 - Mokena,I-80 Exit 145,Mokena,IL,60448,(708) 479-4066,41.54276,-87.8512
AMBEST Fuel Stop,Circle K 6716 - Yorkville,Rte 47 & Rte 71 / 2001 S Bridge St,Yorkville,IL,60560,(630) 553-3796,41.61872,-88.44853
AMBEST Fuel Stop,Circle K 6799 - Bridgeview,I-55 Exit 283,Bridgeview,IL,60455,(708) 594-1430,41.763579,-87.800809
AMBEST Fuel Stop,Circle K 95 - Henderson,3113 Hwy 41 N,Henderson,KY,42420,(270) 826-5144,37.88313,-87.5634
AMBEST Fuel Stop,Circle K#4701686-St. Peters,I-70W EXIT 225,St. Peters,MO,63376,(636) 875-7706,38.81589,-90.55988
AMBEST Fuel Stop,Clark Oil #31-Biloxi,I-10 Exit 44,Biloxi,MS,39530,(228) 392-3110,30.44714,-88.933959
AMBEST Fuel Stop,Clark Oil #49-Laurel,US Hwy 84,Laurel,MS,39440,(601) 428-8360,31.69342,-89.16785
AMBEST Fuel Stop,Clinton Valero,I-78 Exit 17,Clinton,NJ,8809,(908) 730-0637,40.65337,-74.91207
AMBEST Travel Center,Cloverdale Travel Plaza,I-70 Exit 41,Cloverdale,IN,46120,(765) 795-3223,39.530909,-86.803169
AMBEST Travel Center,Common Cents #212,I-90 Exit 20,Sheridan,WY,82801,(307) 675-2095,44.83536,-106.97147
AMBEST Travel Center,Common Cents Travel Plaza 125,I-90 Exit# 61 BYP Highway 16,Rapid City,SD,57701,(605) 791-0157,44.106079,-103.15258
AMBEST Travel Center,Coopersville Truck Stop,I-96 Exit 19,Coopersville,MI,49404,(616) 384-8200,43.05456,-85.90809
AMBEST Express,Crater Lake Junction Travel Center,US Hwy 97 & Hwy 62,Chiloquin,OR,97624,(541) 783-9800 ext4,42.534669,-121.8846
AMBEST Travel Center,Creek Travel Plaza,I-65 Exit 54,Atmore,AL,36502,(251) 368-0088,31.08678,-87.53847
AMBEST Travel Center,Cubbies Travel Center,I-30 Exit 165,Mt. Pleasant,TX,75455,(903) 576-1800,33.196649,-94.92072
AMBEST Travel Center,Deerfield Travel Center,I-55 Exit 8 Hwy 61,Steele,MO,63877,(573) 695-2810,36.08836,-89.813469
AMBEST Fuel Stop,Dodge City Shell Fuel Stop,I-65 Exit 299,Dodge City,AL,35077,(256) 287-0548,34.05209,-86.869259
AMBEST Express,Dorr Truck Stop,US Hwy 131,Wayland,MI,49348,(616) 877-4500,42.72531,-85.676249
AMBEST Fuel Stop,Eddie's Truck & Auto Center,US Hwy 20/395 & Hwy 78,Hines,OR,97738,(541) 573-2639,43.54755,-119.08637
AMBEST Fuel Stop,Energy Express Travel Center,4500 N Broadway,St. Louis,MO,63147,(314) 241-0527,38.6732,-90.202809
AMBEST Fuel Stop,Enmarket NER #1329 - Pooler,I-95 Exit 102/US-80,Pooler,GA,31322,(912) 748-7619,32.100499,-81.22229
AMBEST Fuel Stop,Enmarket NER #1333 - Port Wentworth,I-95 Exit 109 @ GA HWY 21,Port Wentworth,GA,31407,(912) 964-1593,32.189259,-81.193219
AMBEST Fuel Stop,Enmarket NER #1396 - Branchville,US Hwy 21 & 78,Branchville,SC,29432,(803) 274-8040,33.250439,-80.81671
AMBEST Fuel Stop,Enmarket NER #1397 - Cope,US Hwy 301,Cope,SC,29038,(803) 534-7931,33.354379,-81.016249
AMBEST Travel Center,Enmarket NER #1403 - Hardeeville,I-95 Exit 8,Hardeeville,SC,29927,(843) 784-3181,32.312019,-81.05696
AMBEST Travel Center,Enmarket NER #1404 - Harleyville,I-26 Exit 172A,Harleyville,SC,29448,,33.28267,-80.5154
AMBEST Travel Center,Ernie's Truck Plaza Inc,1035 N Main,Beaver,UT,84713,(435) 438-5846,38.28819,-112.64202
AMBEST Fuel Stop,Fastbreak #6,US Hwy 50 / US Hwy 150 / US Hwy 41,Vincennes,IN,47591,(812) 316-0200,38.69438,-87.496709
AMBEST Travel Center,Florida 595 Truck Stop,I-595/I-95 Rte 441 & FL TNPK Exit 8,Davie,FL,33314,(954) 357-1480,26.08697,-80.2107
AMBEST Fuel Stop,Friendly Gus #12,I-16 Exit 49,Dublin,GA,31021,(478) 272-8409,32.4994,-82.976839
AMBEST Travel Center,Friendly Gus #23,I-16 Exit 54,Dublin,GA,31021,(478) 272-2256,32.482909,-82.895979
AMBEST Travel Center,Friendly Gus #24,I-16 Exit 54 @ Hwy 19,Dublin,GA,31021,(478) 275-3844,32.488399,-82.895039
AMBEST Fuel Stop,Friendly Gus #25 - Dudley,US Hwy 80,Dudley,GA,31022,(478) 676-3047,32.542549,-83.071079
AMBEST Travel Center,Frog City Travel Plaza,I-10 Exit 87 LA 35,Rayne,LA,70578,(337) 334-3764,30.250599,-92.2677
AMBEST Travel Center,Fuel America Travel Center-Encinal,I-35 @ Exit 32,Encinal,TX,78019,(956) 948-5290,28.04519,-99.353629
AMBEST Travel Center,Fuel America Travel Center-Laredo,I-35 @ Killiam Industrial Blvd,Laredo,TX,78045,(956) 602-1083,27.619399,-99.5254
AMBEST Fuel Stop,Fuel City Dallas,I-30 / I-35 Junction,Dallas,TX,75207,(214) 426-0011,32.766979,-96.80719
AMBEST Fuel Stop,Fuel City Friendly's,I-35 Exit 436,Dallas,TX,75220,(214) 624-5950,32.859079,-96.88136
AMBEST Fuel Stop,Fuel City Haltom City,State Hwy 121,Haltom City,TX,76117,(817) 484-0712,32.78275,-97.274039
AMBEST Fuel Stop,Fuel City Mesquite,US Hwy 80,Mesquite,TX,75149,(214) 301-0740,32.7916,-96.656419
AMBEST Travel Center,Fuel City Saginaw,I-820 Exit 15,Saginaw,TX,76131,(682) 200-7373,32.848779,-97.34429
AMBEST Fuel Stop,Fuel City Truck Stop Carlisle,I-81 Exit 44,Carlisle,PA,17013,(717) 254-6631,40.188429,-77.239469
AMBEST Fuel Stop,Fuel City Wylie,State Hwy 78,Wylie,TX,75098,(214) 237-0888,33.023699,-96.518879
AMBEST Travel Center,Fuel Expresso 11 - Lebo,2754 Hwy 75 NW,Lebo,KS,66856,(620) 256-6280,38.42685,-95.72928
AMBEST Fuel Stop,Fuel Expresso 17 - Ottawa,I-35 Exit 187 at Hwy 68,Ottawa,KS,66067,(785) 242-5314,38.62229,-95.234729
AMBEST Travel Center,Fuel Mart 645,I-90 Exit 353,Spencer,SD,57374,(605) 449-4626,43.6629,-97.58744
AMBEST Fuel Stop,Fuel Mart 727,I-70 Exit 193,Quaker City,OH,43773,(740) 758-5920,40.05346,-81.32747
AMBEST Fuel Stop,Fuel Mart 764,I-70 Exit 66,South Vienna,OH,45369,(937) 568-9451,39.935519,-83.611279
AMBEST Express,Fuel Mart 783,I-65 Exit 34,Austin,IN,47102,(812) 794-2615,38.741169,-85.822109
AMBEST Express,Fuel N Treat,I-70 Exit 84,Nelson,MO,65347,(660) 859-2430,38.953859,-93.08719
AMBEST Travel Center,FuelMaster,I-70 Exit 137,Cambridge City,IN,47327,(765) 478-5555,39.84935,-85.144739
AMBEST Express,Gallops-Goshen,US Hwy 20,Goshen,IN,46528,(574) 293-1000,41.66803,-85.82008
AMBEST Express,Gallops-Kendallville,US Hwy 6,Kendallville,IN,46755,(260) 349-1581,41.450389,-85.286699
AMBEST Fuel Stop,Gallops-LaPorte,US Hwy 20,LaPorte,IN,46350,(219) 325-0034,41.685479,-86.737449
AMBEST Express,Gallops-Michigan City,US Hwy 20,Michigan City,IN,46360,(219) 878-9778,41.68126,-86.9315
AMBEST Fuel Stop,Gallops-Middlebury,US Hwy 131,Middlebury,IN,46540,(574) 825-7472,41.755369,-85.68031
AMBEST Fuel Stop,Gas N Wash-Bourbonnais,I-57 Exit 318,Bourbonnais,IL,60914,(815) 523-1260,41.20622,-87.877319
AMBEST Travel Center,Gearjammer Truck Plaza,I-82 Exit 36 at US 97,Yakima,WA,98903,(509) 248-9640,46.5687,-120.47291
AMBEST Fuel Stop,Gill Sidhu Chevron,I-80 Exit 67,Dixon,CA,95620,(707) 678-4400,38.489469,-121.80503
AMBEST Fuel Stop,Good 2 Go # 717,I-25 exit 145;  711 E. Fillmore Street,Colorado Spriings,CO,80907,(719) 501-1791,38.87359,-104.81254
AMBEST Fuel Stop,Good 2 Go #418,I-15 Exit 233,Mona,UT,84695,(435) 627-3915,39.82171,-111.835849
AMBEST Express,Good 2 GO #504 Casa Grande,1000 W Gila Bend Highway,Casa Grande,AZ,85122,(870) 312-9199,32.879959,-111.775
AMBEST Fuel Stop,Good 2 Go Travel Center #121,I-15 Exit 113,Idaho Falls,ID,83402,(208) 417-3497,43.437959,-112.11573
AMBEST Fuel Stop,GRUB MART STORES,US Highway 411,Centre,AL,35960,(256) 927-7700,34.16022,-85.7094
AMBEST Express,H&S Truck Stop Dunnigan,I-5 Exit 554,Dunnigan,CA,95937,(530) 654-1959,38.86103,-121.95619
AMBEST Travel Center,H&S Truck Stop Tracy,I-205 Exit 8,Tracy,CA,95304,(209) 879-0084,37.765369,-121.43464
AMBEST Fuel Stop,Hampton Mobil,I-78 at Hwy 31,Hampton,NJ,8827,(908) 537-0801,40.71873,-74.96997
AMBEST Travel Center,Hat Six Travel Center,I-25 Exit 182,Evansville,WY,82636,(307) 234-0504,42.847059,-106.21601
AMBEST Fuel Stop,Henderson Travel Plaza,I-10 EXIT 115,Breaux Bridge,LA,70517,(337) 332-2090,30.31434,-91.83265
AMBEST Travel Center,Highway 84 Travel Center,I-59 Exit 97 / US Hwy 84,Laurel,MS,39440,(601) 649-9398,31.69732,-89.11448
AMBEST Express,Hilltop Marathon,I-75 Exit 270,Waters,MI,49797,(989) 732-4015,44.878779,-84.685569
AMBEST Fuel Stop,Hutch's 103 CK,I-40 Exit 34 (1 mile North),Elk City,OK,73644,,35.408549,-99.471059
AMBEST Express,Hutch's 113 CK,Hwy 270 at Hwy 412 183 15,Woodward,OK,73801,,36.434109,-99.42731
AMBEST Fuel Stop,Hutch's 114 CK,Hwy 81 (3206 S Van Buren),Enid,OK,73703,,36.360639,-97.89094
AMBEST Fuel Stop,Hutch's 118 CK,Hwy 281 & Hwy 270,Watonga,OK,73772,,35.842179,-98.41996
AMBEST Fuel Stop,Hutch's 119 CK,I-40 EXIT 40,Elk City,OK,73644,,35.408329,-99.38035
AMBEST Fuel Stop,Hutch's 120 CK,I-40 Exit 25,Sayre,OK,73662,,35.30924,-99.632589
AMBEST Fuel Stop,Hutch's 125 - Altus CK,HWY 62/283 Bypass,Altus,OK,73522,,34.667009,-99.316059
AMBEST Fuel Stop,Hutch's 128 - Anadarko CK,US Hwy 62,Anadarko,OK,73005,,35.073009,-98.243229
AMBEST Travel Center,I-80 Travel Plaza,I-80 Exit 221,Sinclair,WY,82334,(307) 324-4407,41.77344,-107.08439
AMBEST Travel Center,Irving Fairfield,I-95 Exit 133,Fairfield,ME,4937,(207) 238-9979,44.5957,-69.617239
AMBEST Travel Center,Irving Kittery,I-95 Exit 2 Rt. 1 & I-236,Kittery,ME,3904,(207) 451-9780,43.099119,-70.747529
AMBEST Fuel Stop,J Mart #1,Old US Hwy 50,Garden City,KS,67846,(620) 275-0258,37.98827,-100.91545
AMBEST Express,J&H Family Stores-Grand Ledge,I-96 Exit 86,Grand Ledge,MI,48837,(517) 622-0770,42.797719,-84.73868
AMBEST Travel Center,Jacks Truck Stop,I-65 Exit 304 at Hwy 69 North,Cullman,AL,35055,(256) 739-0220,34.11569,-86.862769
AMBEST Travel Center,Jim's Truck Plaza,I-90 Exit 52E,Buffalo,NY,14225,(716) 683-9931,42.906829,-78.758529
AMBEST Travel Center,JJ Travel Plaza,I-70 Exit 70,Oakley,KS,67748,(785) 672-3900,39.18621,-100.86879
AMBEST Travel Center,Joe's Travel Plaza 11,I-5 Exit 441 / 4415 Howard Rd,Westley,CA,95387,(209) 894-3040,37.538409,-121.26376
AMBEST Travel Center,JP Cartersville Truck Center,I-75 Exit 293,Cartersville,GA,30121,(678) 972-7675,34.241459,-84.77468
AMBEST Travel Center,JP Travel Center Hwy 16,I-75 Exit #205/Hwy 16,Jackson,GA,30233,(470) 928-2300,33.260249,-84.09802
AMBEST Fuel Stop,JP Travel Lee Road,I-20 Exit 41,Lithia Springs,GA,30122,(770) 941-3460,33.771569,-84.653
AMBEST Travel Center,Jubitz Travel Center,I-5 Exit 307,Portland,OR,97217,(503) 283-1111 ext3,45.59678,-122.66828
AMBEST Travel Center,K&H Travel Plaza,I-57 Exit 283,Gilman,IL,60938,(815) 265-7625,40.753019,-87.996039
AMBEST Fuel Stop,Kangaroo Crossing #1101 - Pickens,I-55 Exit 144,Pickens,MS,39146,(662) 472-2674,32.943829,-89.979609
AMBEST Fuel Stop,Kangaroo Crossing #1107 - Pelahatchie,I-20 Exit 68,Pelahatchie,MS,39145,(601) 854-5200,32.294899,-89.804289
AMBEST Travel Center,Kangaroo Crossing #1108-Mendenhall,US Hwy 49,Mendenhall,MS,39114,(601) 675-1183,31.99465,-89.89914
AMBEST Fuel Stop,Kim's Travel Plaza #26-Atlanta,US Hwy 59,Atlanta,TX,75551,(903) 723-8585,33.10643,-94.19669
AMBEST Fuel Stop,Kim's Travel Plaza #44-Pittsburg,US Hwy 271,Pittsburg,TX,75686,(903) 855-8011,33.024389,-94.96384
AMBEST Travel Center,La Media Travel Center,SH 905 / SH 125,San Diego,CA,92154,(619) 671-0700,32.568449,-116.96149
AMBEST Express,Last Stop Travel Center,N US HWY 93,White Hills,AZ,86445,(928) 275-1543,35.716149,-114.4855
AMBEST Fuel Stop,Ledgewood BP,I-80 Exit 28,Ledgewood,NJ,7852,(973) 810-3616,40.88964,-74.66334
AMBEST Travel Center,Little America Fuel Center,I-80 Exit 68,Little America,WY,82929,(307) 875-2400,41.544069,-109.8591
AMBEST Travel Center,Little America Travel Center-Cheyenne,I-25/I-80 Exit 9 - 358 at Lincolnway,Cheyenne,WY,82009,(307) 775-8451,41.117669,-104.85626
AMBEST Travel Center,Little America Travel Center-Flagstaff,I-40 Exit 198,Flagstaff,AZ,86003,(928) 779-7942,35.19183,-111.6186
AMBEST Travel Center,London Travel Plaza,I-75 Exit 41,London,KY,40741,(606) 864-6426,37.146839,-84.115179
AMBEST Travel Center,Lost Hills Travel Center,I-5 Exit 278 at HWY 46,Lost Hills,CA,93249,(661) 797-2354,35.614899,-119.656319
AMBEST Express,Lucky Travel Plaza,I-80 Exit 165,Soda Springs,CA,95728,(916) 765-3584,39.309579,-120.54433
AMBEST Travel Center,Lupton Truck Stop #567,I-40 Exit 359,Lupton,AZ,86508,(520) 201-5255,35.36319,-109.04827
AMBEST Travel Center,M-46 Truck Stop,US Hwy 131 Exit 120,Howard City,MI,49329,(231) 937-4090,43.42501,-85.47477
AMBEST Travel Center,Mach 1 #12 West Frankfort,I-57 Exit 65,West Frankfort,IL,62896,(618) 767-5819,37.89786,-88.952119
AMBEST Travel Center,Mach 1 #13 - Marion,I-57 Exit 53,Marion,IL,62959,(217) 540-2956,37.729649,-88.95171
AMBEST Express,Mach 1 #24 - Tilton,I-74 Exit 215A,Tilton,IL,61832,(217) 909-4535,40.09881,-87.63445
AMBEST Travel Center,Marion Travel Center,I-55 Exit 14,Marion,AR,72364,(870) 559-5025,35.26124,-90.226119
AMBEST Fuel Stop,Maryland House Sunoco,I-95 Exit 82,Aberdeen,MD,21001,(410) 272-3854,39.498649,-76.230549
AMBEST Express,Meskwaki Travel Plaza,US HWY 30,TAMA,IA,52339,(641) 484-9341,41.99868,-92.674809
AMBEST Travel Center,Midwest Petroleum #2-Fredericktown,US Hwy 67,Fredricktown,MO,63645,(573) 783-3609,37.490989,-90.306749
AMBEST Fuel Stop,Midwest Petroleum #30 - St. James,I-44 Exit 195,St. James,MO,65559,(573) 261-4087,38.002809,-91.618009
AMBEST Fuel Stop,Millers Travel Centers - Wellington,2195 E Main St,Wellington,UT,84542,(435) 636-0380,39.54317,-110.68904
AMBEST Fuel Stop,Mobil-Queens Market,I-85 Exit 41,Charlotte,NC,28262,(980) 226-5059,35.28107,-80.79393
AMBEST Express,Mountain View Truck Stop,US Hwy 15,Thurmont,MD,21788,(301) 271-3333,39.61507,-77.41737
AMBEST Travel Center,Muralt's Travel Plaza,I-90 & Hwy 93 Exit 96,Missoula,MT,59808,(406) 728-4700,46.955179,-114.13014
AMBEST Fuel Stop,Mykawa Truck Stop,I-610 Exit 34A,Houston,TX,77033,(832) 859-9611,29.67594,-95.321979
AMBEST Fuel Stop,Nacogdoches Truck Stop,US Hwy 259,Nacogdoches,TX,75968,(936) 559-5798,31.70399,-94.677769
AMBEST Fuel Stop,Nashville Knapp Mart,I-64 Exit 50,Nashville,IL,62263,(618) 464-9300,38.375059,-89.371809
AMBEST Travel Center,Newborn Truck Stop,I-20 Exit 5,Tallapoosa,GA,30176,(770) 574-5082,33.681699,-85.263229
AMBEST Travel Center,North Point Plaza,I-90/94 Exit 115,Poynette,WI,53955,(608) 635-7139,43.39314,-89.46192
AMBEST Fuel Stop,Oasis Stop 'N Go #17,US Hwy 30/3204 Kimberly Rd,Twin Falls,ID,83301,(208) 944-9312,42.54791,-114.42092
AMBEST Travel Center,Oasis Travel Center,I-10 Exit 53 at Hwy 64,Robertsdale,AL,36567,(251) 960-1150,30.630649,-87.615769
AMBEST Travel Center,Olsons Truck Stop,I-94 Exit 183,Hasty/Clearwater,MN,55320,(763) 878-1655,45.366729,-93.97562
AMBEST Fuel Stop,OnCue #147-Oklahoma City,I-44 Exit 112,Oklahoma City,OK,73159,(405) 479-8224,35.36375,-97.581819
AMBEST Fuel Stop,OnCue 136,I-35 Exit 124A,Oklahoma City,OK,73129,(405) 469-4458,35.42689,-97.48444
AMBEST Fuel Stop,Onvo Express - Harford,I-81 Exit 217 5076 State Route 547,Harford,PA,18823,(570) 434-2608,41.78611,-75.6841
AMBEST Express,Onvo Travel Plaza - Avis,US Hwy 220 Exit 118,Avis,PA,17721,(570) 873-3117,41.180729,-77.32607
AMBEST Fuel Stop,Onvo Travel Plaza - Bethel,I-78 Exit 13,Bethel,PA,19507,(717) 933-2066,40.477899,-76.295969
AMBEST Travel Center,Onvo Travel Plaza - Blakeslee,I-80 Exit 284,Blakeslee,PA,18610,(570) 643-1000,41.078679,-75.5792
AMBEST Travel Center,Onvo Travel Plaza - Canaan,I-90 Exit B3,Canaan,NY,12029,(518) 781-4144,42.36131,-73.427189
AMBEST Travel Center,Onvo Travel Plaza - Dorrance,I-81 Exit 155,Mountain Top,PA,18707,(570) 868-8614,41.082819,-75.960599
AMBEST Express,Onvo Travel Plaza - Duncannon,3298 Susquehanna Trail,Duncannon,PA,17020,(717) 834-4000,40.44773,-76.982249
AMBEST Travel Center,Onvo Travel Plaza - Fultonville,I-90 Exit 28,Fultonville,NY,12072,(518) 853-4601,42.94736,-74.35821
AMBEST Express,Onvo Travel Plaza - Gibson,I-81 Exit 219 2174 State Route 848,New Milford,PA,18834,(570) 465-3794,41.82334,-75.678659
AMBEST Travel Center,Onvo Travel Plaza - Gouldsboro,I-380 Exit 13 17 Main St,Gouldsboro,PA,18424,(570) 842-2211,41.233229,-75.49559
AMBEST Fuel Stop,Onvo Travel Plaza - Harford,I-81 Exit 217 5085 State Route 547,Harford,PA,18823,(570) 434-2330,41.787979,-75.684399
AMBEST Travel Center,Onvo Travel Plaza - Hickory Run,I-80 Exit 274 at State Rt. 534,White Haven,PA,18661,(570) 443-4437,41.062289,-75.749319
AMBEST Express,Onvo Travel Plaza - Highridge,I-81 Exit 119,Pottsville,PA,17901,(570) 399-5600,40.73259,-76.29703
AMBEST Fuel Stop,Onvo Travel Plaza - Lakewood (Greentown),I-84 Exit 20 1414 Route 507,Greentown,PA,18426,(570) 676-4303,41.3436,-75.312079
AMBEST Travel Center,Onvo Travel Plaza - Lounsberry,I-86 Exit 63,Nichols,NY,13812,(607) 687-3957,42.0641,-76.323759
AMBEST Fuel Stop,Onvo Travel Plaza - McGraw,I-81 Exit 10,McGraw,NY,13101,(607) 753-8007,42.588149,-76.130129
AMBEST Express,Onvo Travel Plaza - Mifflintown,Hwy 35 and 22,Mifflintown,PA,17059,(717) 436-8943,40.578409,-77.37469
AMBEST Travel Center,Onvo Travel Plaza - Mifflinville,US 22 & RT 35 - 9 Stop Plaza Drive,Mifflinville,PA,18631,(570) 752-9330,41.025559,-76.31743
AMBEST Travel Center,Onvo Travel Plaza - Mt. Cobb,I-84 Exit 8,Lake Ariel,PA,18436,(570) 689-3900,41.40858,-75.50591
AMBEST Travel Center,Onvo Travel Plaza - Pinegrove,I-81 Exit 104 10 Molleystown Rd,Pine Grove,PA,17963,(570) 345-2498,40.590859,-76.407709
AMBEST Fuel Stop,Onvo Travel Plaza - Promised Land,I-84 Exit 26 624 Route 390,Tafton,PA,18464,(570) 857-1515,41.36254,-75.20093
AMBEST Fuel Stop,Onvo Travel Plaza-New Smithville,I-78 Exit 45,Kutztown,PA,19530,(610) 285-2852,40.58133,-75.706729
AMBEST Fuel Stop,Petersons Diesel Fueling,I-5 Exit 156,Tukwila,WA,98168,(206) 433-0149,47.48525,-122.2701
AMBEST Fuel Stop,Phillipsburg Sunoco,I-78 Hwy 611 Hwy 22,Phillipsburg,NJ,8865,(908) 859-0040,40.69552,-75.18934
AMBEST Travel Center,Pioneer Travel Plaza,I-41 Exit 60,Richfield,WI,53076,(262) 628-3344,43.281799,-88.197109
AMBEST Fuel Stop,Pitstop Express #25,Wayside Drive & Ley Road,Houston,TX,77028,(832) 863-7241,29.83208,-95.285039
AMBEST Fuel Stop,Pitstop Express #26,610 East & Wallisville,Houston,TX,77013,(832) 513-0500,29.794879,-95.2483
AMBEST Fuel Stop,Pitstop Express #36,I-10 East @ Lockwood,Houston,TX,77020,(832) 416-9174,29.762889,-95.315209
AMBEST Fuel Stop,Pitstop Express #4,Wayside Drive & Ley Road,Houston,TX,77028,(832) 863-7241,29.83198,-95.283879
AMBEST Fuel Stop,Pitstop Express #8,I-10 Exit 787 / N Main Street,Highlands,TX,77562,(832) 863-7241,29.8229,-95.05661
AMBEST Travel Center,Pride Travel Center - Chicopee,I-90/Mass Pike Exit 6,Chicopee,MA,1020,(413) 592-6190,42.166379,-72.544939
AMBEST Fuel Stop,Pride Travel Center - Springfield,I-91 at RTE 20 W,Springfield,MA,1104,(413) 733-6126,42.110019,-72.6106
AMBEST Travel Center,Pride Travel Center #628 - Hartford,I-91 Exit 33 / I-84; 10 Jennings Road,Hartford,CT,6120,(860) 461-7505,41.785919,-72.653499
AMBEST Fuel Stop,Pride Travel Center #630 - East Granby,SR-20; 122 Rainbow Road,East Granby,CT,6026,(860) 413-3444,41.92998,-72.711479
AMBEST Fuel Stop,Pride Travel Centers #632 South Windsor,US Hwy 5; 1049 John Fitch Blvd.,South Windsor,CT,6074,(413) 568-8920,41.833309,-72.6049
AMBEST Fuel Stop,Pump & Pantry #55-Falls City,US Hwy 73,Falls City,NE,68355,(402) 245-2406,40.06051,-95.601939
AMBEST Fuel Stop,Pump & Pantry 13 - St. Paul,US Hwy 281 at US Hwy 92/514 2nd St,St. Paul,NE,68873,(308) 754-4439,41.2107,-98.451419
AMBEST Fuel Stop,Pump & Pantry 14 - Broken Bow,US Hwy 2/1037 E South E St,Broken Bow,NE,68822,(308) 872-6842,41.40184,-99.619579
AMBEST Fuel Stop,Pump & Pantry 15 - Grand Island,2028 E Hwy 30,Grand Island,NE,68801,(308) 384-1886,40.93187,-98.319789
AMBEST Fuel Stop,Pump & Pantry 2 - Grand Island,821 S Webb Rd  .. S off US 30,Grand Island,NE,68803,(308) 381-0767,40.91163,-98.37841
AMBEST Fuel Stop,Pump & Pantry 23 - Holdrege,US Hwy 6 at US Hwy 183/916 4th Ave,Holdrege,NE,68949,(308) 995-6907,40.437539,-99.3674
AMBEST Fuel Stop,Pump & Pantry 24 - Hastings,1630 E South,Hastings,NE,68901,(402) 462-5832,40.582039,-98.360129
AMBEST Fuel Stop,Pump & Pantry 29 - Central City,US Hwy 30 at US Hwy 14/1110 G St,Central City,NE,68826,(308) 946-2394,41.1075,-98.01605
AMBEST Fuel Stop,Pump & Pantry 34 - Gordon,Hwy 20 at State Hwy 27/101 W Hwy 20,Gordon,NE,69343,(308) 282-2000,42.8001,-102.20352
AMBEST Fuel Stop,Pump & Pantry 35 - Alma,710 N Hwy 183,Alma,NE,68920,(308) 928-2590,40.10452,-99.368279
AMBEST Fuel Stop,Pump & Pantry 4 - Cairo,Hwy 2 at Hwy 11/103 W Hwy 11,Cairo,NE,68824,(308) 485-4404,41.00179,-98.60774
AMBEST Fuel Stop,Pump & Pantry 53 - Jackson,US Hwy 20,Jackson,NE,68743,(402) 632-4949,42.447409,-96.57204
AMBEST Travel Center,Quicklee's Travel Center - Avon,I-390 Exit 9,Avon,NY,14414,(585) 226-9560,42.86612,-77.712069
AMBEST Travel Center,Quicklee's Travel Center - Belmont,I-86 Exit 30/Hwy NY 19,Belmont,NY,14813,(585) 268-8190,42.253619,-78.06291
AMBEST Travel Center,Quicklee's Travel Center-Niagara Falls,I-190 Exit 23,Niagara Falls,NY,14304,(716) 205-8256,43.10676,-78.99415
AMBEST Travel Center,Relay Station - Frierson,I-49 Exit 186,Frierson,LA,71027,(318) 872-1900,32.2145,-93.7052
AMBEST Fuel Stop,Ricky Rockets-Itasca,380 @ N Rohlwing,Itasca,IL,60143,(847) 250-5484,41.99398,-88.031469
AMBEST Travel Center,Ricky Rockets-Kankakee,I-57 Exit 312,Kankakee,IL,60901,,41.18865,-87.83512
AMBEST Fuel Stop,Ricky Rockets-Midlothian,294 S & Hwy 83,Midlothian,IL,60445,(708) 377-6688,41.64869,-87.736159
AMBEST Travel Center,RJ's Fuel Stop,I-84/I-15 Exit 40 at West Main,Tremonton,UT,84337,(435) 257-3530,41.710389,-112.199929
AMBEST Travel Center,Searchlight Truck Stop,US Hwy 95 at Hwy 164 Calif. Line,Searchlight,NV,89046,(702) 297-1080,35.46068,-114.91802
AMBEST Travel Center,Seven Feathers Truck & Travel Center,I-5 Exit 99,Canyonville,OR,97417,(541) 839-3100,42.940689,-123.290539
AMBEST Fuel Stop,Shell Food Mart,I-35 Exit 54,Cameron,MO,64429,(816) 632-2156,39.752009,-94.214939
AMBEST Travel Center,Shepherd Travel Plaza,US 59/I-59,Shepherd,TX,77371,(832) 808-0930,30.53116,-94.97484
AMBEST Fuel Stop,Shoemaker's South,1200 Saltillo Rd,Roca,NE,68430,(402) 420-7899,40.69762,-96.70399
AMBEST Travel Center,Shoemaker's Truck Station,I-80 Exit 395,Lincoln,NE,68522,(402) 474-1771,40.813339,-96.788849
AMBEST Fuel Stop,Shree's Truck Stop,I-90 @ Exit 149,George,WA,98824,(509) 785-2200,47.08287,-119.859759
AMBEST Fuel Stop,Signal Food Store - Mansfield 110,711 N Hwy Business 60,Mansfield,MO,65704,(417) 924-8886,37.115029,-92.57741
AMBEST Fuel Stop,Signal Food Store - Mountain View,US 60 - 513 N Pine St,Mountain View,MO,65548,(417) 934-5941,37.000419,-91.704729
AMBEST Fuel Stop,Signal Food Store - Ozark,US 65 MO/MO CC  -  1690 W Hwy J,Ozark,MO,65721,(417) 581-9902,37.069809,-93.222989
AMBEST Fuel Stop,Signal Food Store #120,US Highway 60,Seymour,MO,65746,(417) 765-1010,37.150379,-92.752899
AMBEST Express,Silvers Travel Plaza - Port Allen,US Hwy 190 W,Port Allen,LA,70767,(225) 383-0695,30.499919,-91.30791
AMBEST Fuel Stop,Silvers Travel Plaza & Casinos,2447 Rees St Extension,Breaux Bridge,LA,70517,(337) 507-3440,30.2983,-91.91763
AMBEST Travel Center,Simonson Travel Center,I-29 Exit 141,Grand Forks,ND,58203,(701) 795-2107,47.93394,-97.09675
AMBEST Travel Center,Sky City Travel Center,I-40 Exit 102,Acoma,NM,87034,(505) 552-5700,35.076639,-107.55776
AMBEST Travel Center,Sooner's Corner,I-35 Exit 185,Perry,OK,73077,(580) 336-4460,36.275559,-97.32925
AMBEST Express,SP Truck Stop,SR 539  8391 Guide Meridian Road,Lynden,WA,98264,(360) 223-5466,48.945279,-122.48667
AMBEST Travel Center,Speed Trek Travel Center,I-90 Exit 25 / Genoa Road,Belvidere,IL,61008,(779) 552-7895,42.23557,-88.81982
AMBEST Travel Center,Star Express Travel Center,I-95 Exit 45,Petersburg,VA,23805,(804) 722-5431,37.150199,-77.35683
AMBEST Fuel Stop,Sunoco - 7-11 7577 Shippensburg,I-81  Exit 29 (PA 174E),Shippensburg,PA,17257,(717) 532-7788,40.060639,-77.476969
AMBEST Fuel Stop,Sunoco Co-op 7005 Clara Barton Plaza,I-95/NJ TPKMP 5.4 Southbound,Penns Grove,NJ,8069,(856) 299-4005,39.69746,-75.39609
AMBEST Fuel Stop,Sunoco Co-op 7006 John Fenwick Plaza,I-95/NJ TPKMP 5.4 Northbound,Penns Grove,NJ,8069,(856) 299-4004,39.696249,-75.395629
AMBEST Fuel Stop,Sunoco Co-op 7007 Walt Whitman Plaza,I-95/NJ TPKMP 30.2 Southbound,Cherry Hill,NJ,8002,(856) 428-1250,39.88553,-75.002229
AMBEST Fuel Stop,Sunoco Co-op 7008 James F Cooper Plaza,I-95/NJ TPKMP 39.4 Northbound,Mount Laurel,NJ,8054,(856) 234-5222,39.98125,-74.88848
AMBEST Fuel Stop,Sunoco Co-op 7009 Rich Stockton Plaza,I-95/NJ TPKMP 58.7 Southbound,Hamilton,NJ,8620,(609) 585-5414,40.17777,-74.63056
AMBEST Fuel Stop,Sunoco Co-op 7010 Woodrow Wilson Plaza,I-95/NJ TPKMP 58.7 Northbound,Hamilton,NJ,8620,(609) 585-5750,40.17647,-74.62932
AMBEST Fuel Stop,Sunoco Co-op 7011 Molly Pitcher Plaza,I-95/NJ TPKMP 71.7 Southbound,Cranbury,NJ,8512,(609) 395-1947,40.32088,-74.489149
AMBEST Fuel Stop,Sunoco Co-op 7012 Joyce Kilmer Plaza,I-95/NJ TPKMP 78.7 Northbound,E. Brunswick,NJ,8816,(732) 257-6103,40.416629,-74.44476
AMBEST Fuel Stop,Sunoco Co-op 7013 Thomas Edison Plaza,I-95/NJ TPKMP 92.9 Southbound,Woodbridge,NJ,7095,(732) 636-0580,40.559629,-74.264579
AMBEST Fuel Stop,Sunoco Co-op 7014 Grover Cleveland Plaza,I-95/NJ TPKMP 92.9 Northbound,Woodbridge,NJ,7095,(732) 636-1298,40.55751,-74.263419
AMBEST Fuel Stop,Sunoco Co-op 7016 Alex Hamilton Plaza,I-95/NJ TPKMP 111.6 Southbound,Secaucus,NJ,7094,(201) 348-0656,40.769269,-74.06534
AMBEST Fuel Stop,Sunoco Co-op 7017 Vince Lombardi Plaza,I-95/NJ TPKMP 116E 115.5W,Ridgefield,NJ,7657,(201) 945-5112,40.82283,-74.02965
AMBEST Travel Center,Sunoco Truck Stop Carneys Point,I-295 Exit 2C,Carneys Point,NJ,8069,(856) 299-9300,39.685169,-75.48277
AMBEST Fuel Stop,Taylor's - Missouri Valley,I-29 Exit 75 at US Hwy 30,Missouri Valley,IA,51555,(712) 642-4305,41.550649,-95.912199
AMBEST Fuel Stop,Taylor's -West Point,US Hwy 275,West Point,NE,68788,(402) 372-9119,41.858379,-96.70944
AMBEST Express,Terrible's # 461 Carlsbad,National Parks HWY US 62 & South Canal Street HWY 285,Carlsbad,NM,88220,(702) 597-6222,33.15809,-117.35059
AMBEST Express,Terrible's # 462,I-70 Exit 56 /  2055 S. State St.,Salina,UT,84654,(702) 597-6222,38.932209,-111.85348
AMBEST Fuel Stop,Terrible's #412,I-15 Exit 291,Nipton,CA,92364,(702) 597-6222,35.540889,-115.421589
AMBEST Travel Center,Texas Travel Center,I-35 Exit 277,Jarrell,TX,76537,(254) 308-3513,30.86609,-97.586359
AMBEST Fuel Stop,Tex-Best Travel Center #519-Alice,US Hwy 281,Alice,TX,78332,(361) 668-8777,27.69932,-98.07871
AMBEST Fuel Stop,Tex-Best Travel Center #524-Alice,US Hwy 281,Alice,TX,78332,(361) 396-0887,27.71893,-98.09712
AMBEST Fuel Stop,Tex-Best Travel Center #525,I-37 Exit 109,Pleasanton,TX,78064,(830) 569-8520,28.99423,-98.429119
AMBEST Fuel Stop,Tex-Best Travel Center #526-George West,US Hwy 281,George West,TX,78022,(361) 449-2800,28.326899,-98.11414
AMBEST Fuel Stop,Tex-Best Travel Center #531-Uvalde,US Hwy 90,Uvalde,TX,78001,(830) 407-1665,29.23317,-99.752359
AMBEST Fuel Stop,Tex-Best Travel Center #532-San Manuel,US Hwy 281,San Manuel,TX,78542,,26.556249,-98.12178
AMBEST Express,Texstar Travel Center,I-35 Exit 302,Temple,TX,76504,(254) 314-2309,31.114889,-97.35598
AMBEST Fuel Stop,The Outpost,I-82 Exit 69,Sunnyside,WA,98944,(509) 839-5300,46.3095,-119.9791
AMBEST Fuel Stop,Toot 'N Totum 100 - Perryton,2401 S Main St,Perryton,TX,79070,(806) 434-1831,36.37621,-100.80198
AMBEST Fuel Stop,Toot 'N Totum 104 - Dalhart,1107 US Hwy 87,Dalhart,TX,79022,(806) 244-6496,36.05588,-102.5074
AMBEST Fuel Stop,Toot 'N Totum 107 - Dumas,1603 S Dumas Ave,Dumas,TX,79029,(806) 934-2489,35.847459,-101.97271
AMBEST Express,Toot 'N Totum 120 - Liberal,US Hwy 54,Liberal,KS,67901,(620) 624-7471,37.02769,-100.94016
AMBEST Travel Center,Toot 'N Totum 99 - Amarillo,I-40 Exit 75,Amarillo,TX,79118,(806) 220-0990,35.19417,-101.74457
AMBEST Fuel Stop,Toot'n Totum #114-Dalhart,US Hwy 54 / US Hwy 87,Dalhart,TX,79022,(806) 244-0120,36.064639,-102.52083
AMBEST Travel Center,Toot'n Totum #127-Plainview,I-27 Exit 49B,Plainview,TX,79072,(806) 429-7453,34.188479,-101.74844
AMBEST Fuel Stop,Toot'n Totum #128-Amarillo,I-40 Exit 57,Amarillo,TX,79124,(806) 353-2002,35.197879,-102.0642
AMBEST Travel Center,Toot'n Totum #130-Clayton,US Hwy 87,Clayton,NM,88415,(575) 374-2215,36.438989,-103.17622
AMBEST Travel Center,Toot'n Totum #131-Lamesa,US Hwy 87 / Lubbock Hwy,Lamesa,TX,79331,(806) 230-0381,32.75661,-101.94659
AMBEST Travel Center,Toot'n Totum #132-Lubbock,US Hwy 84 / Slaton Hwy,Lubbock,TX,79404,(806) 902-7390,33.528149,-101.81019
AMBEST Fuel Stop,Toot'n Totum #22-Amarillo,FM 1541,Amarillo,TX,79118,(806) 622-0762,35.090879,-101.84707
AMBEST Travel Center,Torch 85 Travel Center,I-85 Exit 42,Tuskegee,AL,36083,(334) 727-7993,32.38526,-85.63523
AMBEST Travel Center,Trails End,I-29 Exit 110/ 1303 W US Hwy 136,Rock Port,MO,64482,(660) 744-6217,40.406219,-95.55794
AMBEST Express,Travel Refresh 365,619 N Home St,Corrigan,TX,75939,(936) 215-5080,30.9995,-94.8298
AMBEST Travel Center,Travelers' Oasis,I-84 Exit 182,Eden,ID,83325,(208) 825-4147,42.574599,-114.2966
AMBEST Travel Center,Truckers Inn Sauk Centre,I-94 Exit 127 at US Hwy 71 and MN28,Sauk Centre,MN,56378,(320) 352-5241,45.718389,-94.954419
AMBEST Travel Center,Tucson Truck Terminal Inc.,I-10 Exit 268,Tucson,AZ,85756,(520) 574-0050,32.12706,-110.876099
AMBEST Travel Center,Tulip City Truck Stop,I-196 Exit 49,Holland,MI,49423,(616) 396-2538,42.73772,-86.06622
AMBEST Express,Turkey Hill #324,US 322 & RT 897 168 Toddy Dr,East Earl,PA,17519,(717) 354-9486,40.114069,-76.03175
AMBEST Travel Center,Twice Daily - KY,I-65 Exit 6,Franklin,KY,42134,(270) 586-3248,36.715,-86.51918
AMBEST Travel Center,Twice Daily 6604 - Nashville,I-40 Exit 212,Nashville,TN,37210,(615) 242-2566,36.14415,-86.74472
AMBEST Fuel Stop,Twice Daily 8046 - Joelton,I-24 Exit 31,Joelton,TN,37080,(615) 746-5661,36.34561,-86.933999
AMBEST Fuel Stop,Twice Daily 8087 - Lebanon,I-40 Exit 238,Lebanon,TN,37090,(615) 443-3416,36.17934,-86.301079
AMBEST Travel Center,Una Travel Center,I-94 Exit 228,Roseville,MI,48066,(586) 859-0997 ext6,42.481969,-82.934569
AMBEST Travel Center,Ute Mountain Casino & Travel Center,1 E Mike Wash Road / HWY491,Towaoc,CO,81334,(970) 565-8800 ext6169,37.201599,-108.687
AMBEST Fuel Stop,Vaca Valley Travel Center,I-505 at I-80,Vacaville,CA,95688,(707) 451-7533,38.394799,-121.9517
AMBEST Fuel Stop,Valley Fuel Town & Country,US Hwy 99 Exit 76,Tipton,CA,93272,(559) 752-4905,36.056249,-119.312659
AMBEST Express,Valley Fuel Travel Plaza,US Hwy 99 Exit 98,Visalia,CA,93291,(559) 651-0009,36.350459,-119.42528
AMBEST Travel Center,Walburg Travel Center,I-35 Exit 268,Georgetown,TX,78626,(512) 688-5152,30.71066,-97.647289
AMBEST Fuel Stop,Weigel's #100-Chattanooga,SR 153,Chattanooga,TN,37421,(423) 836-3088,35.05413,-85.194
AMBEST Fuel Stop,Weigel's #102-Athens,I-75 Exit 49,Athens,TN,37303,(423) 333-5486,35.46681,-84.65151
AMBEST Fuel Stop,Weigel's #58 - Kingston,I-40 Exit 356A,Kingston,TN,37763,(865) 376-4130,35.87283,-84.44144
AMBEST Fuel Stop,Weigel's #64 - Clinton,I-75 Exit 122 @ US 61,Clinton,TN,37716,(865) 494-7970,36.169629,-84.07876
AMBEST Fuel Stop,Weigel's #80 - Newport,I-40 Exit 435 US HWY 321,Newport,TN,37821,(423) 613-9177,35.9495,-83.20131
AMBEST Fuel Stop,Weigel's #81 - Morristown,I-81 Exit 8 Hwy 32,Morristown,TN,37813,(423) 586-3882,36.143349,-83.27934
AMBEST Fuel Stop,Weigel's #90 - Kodak,US Hwy 66 I-40 Exit 407,Kodak,TN,37764,(865) 919-7489,35.95403,-83.59295
AMBEST Travel Center,Willcox Express Stop,I-10 Exit 340,Willcox,AZ,85643,(520) 766-1100,32.263849,-109.84093
AMBEST Express,Winner's Circle #1,I-30/HWY 270 Exit 98A,Malvern,AR,72104,(501) 337-0600,34.393799,-92.8281
AMBEST Travel Center,Woodbine Travel Center,I-95 Exit 14,Woodbine,GA,31569,(912) 576-0225,30.947839,-81.68944
AMBEST Travel Center,Woodhull Travel Plaza,I-74 Exit 32,Woodhull,IL,61490,(309) 334-5000,41.177489,-90.32424
AMBEST Travel Center,Woodshed of Big Cabin LLC,I-44 Exit 283 at Hwy 69,Big Cabin,OK,74332,(918) 783-5121,36.56667,-95.22153
AMBEST Travel Center,Workman's Travel Center Ozark,I-40 Exit 35,Ozark,AR,72949,(479) 667-0711,35.523809,-93.864059
AMBEST Travel Center,Workman's Travel Center Rudy,I-540 N Exit 24 at Hwy 282,Alma,AR,72921,(479) 632-1356,35.53891,-94.22937
AMBEST Travel Center,Workman's Travel Center-Lowell,I-49 Exit 78,Lowell,AR,72745,(479) 419-9424,36.255749,-94.15367
AMBEST Fuel Stop,Yesway - 1077 Tye,I-20 Exit 278 N,Tye,TX,79563,(325) 695-5330,32.46081,-99.854749
AMBEST Travel Center,Yesway -1075 Tye S,I-20 Exit 278,Tye,TX,79563,(325) 692-8736,32.45814,-99.85568
AMBEST Travel Center,Yesway 1125 - Lubbock,I-27 at 50th St/Ave A,Lubbock,TX,79404,(806) 747-2505,33.55192,-101.83514
AMBEST Fuel Stop,Yesway 1157-Brownfield,US Hwy 62 / US Hwy 385,Brownfield,TX,79316,(806) 637-3151,33.19073,-102.27346
AMBEST Fuel Stop,Yesway 1168 - Iowa Park,HWY 287 Exit NW Access Rd,Iowa Park,TX,76367,(940) 592-5607,33.96493,-98.67273
AMBEST Travel Center,Yesway 1178- Kadoka,I-90 Exit 152,Kadoka,SD,57543,(806) 747-2505,43.85327,-101.483909
AMBEST Fuel Stop,Zippy J #23,Hwy 31 W,Trinidad,TX,75136,(903) 778-5008,32.14715,-96.092699
AMBEST Fuel Stop,Zippy J's #18,Hwy 290,Brenham,TX,77833,(979) 353-5052,30.16977,-96.38039